NORAD_CAT_ID,OBJECT_NAME,OBJECT_TYPE,EPOCH,MEAN_MOTION,ECCENTRICITY,INCLINATION,RA_OF_ASC_NODE,ARG_OF_PERICENTER,MEAN_ANOMALY,BSTAR,MEAN_MOTION_DOT,MEAN_MOTION_DDOT,TLE_LINE0,TLE_LINE1,TLE_LINE2,SEMIMAJOR_AXIS,PERIOD,APOGEE,PERIGEE,DECAYED
56803.0,STARLINK-6029,PAYLOAD,2024-07-22 22:38:55,14.98335081,0.0002883,70.0002,43.9974,265.259,94.824,6.754e-05,7.13e-06,0.0,0 STARLINK-6029,1 56803U 23078AN  24204.94370220  .00000713  00000-0  67540-4 0  9998,2 56803  70.0002  43.9974 0002883 265.2590  94.8240 14.98335081 63591,6950.177,96.107,574.046,570.038,0.0
56803.0,STARLINK-6029,PAYLOAD,2024-07-23 00:15:03,14.98335864,0.0002882,70.0002,43.829,264.8481,95.2349,7.4722e-05,7.99e-06,0.0,0 STARLINK-6029,1 56803U 23078AN  24205.01046135  .00000799  00000-0  74722-4 0  9996,2 56803  70.0002  43.8290 0002882 264.8481  95.2349 14.98335864 63868,6950.175,96.107,574.043,570.037,0.0
56803.0,STARLINK-6029,PAYLOAD,2024-07-23 09:51:52,14.9833185,0.0002753,70.0004,42.8174,270.0703,90.0141,-2.9064e-05,-4.4e-06,0.0,0 STARLINK-6029,1 56803U 23078AN  24205.41102648 -.00000440  00000-0 -29064-4 0  9996,2 56803  70.0004  42.8174 0002753 270.0703  90.0141 14.98331850 63924,6950.187,96.107,573.966,570.139,0.0
56803.0,STARLINK-6029,PAYLOAD,2024-07-23 22:40:57,14.98323343,0.0002811,70.0003,41.4701,270.0304,90.0533,2.2166e-05,1.71e-06,0.0,0 STARLINK-6029,1 56803U 23078AN  24205.94511251  .00000171  00000-0  22166-4 0  9993,2 56803  70.0003  41.4701 0002811 270.0304  90.0533 14.98323343 63749,6950.213,96.107,574.032,570.125,0.0
56803.0,STARLINK-6029,PAYLOAD,2024-07-24 13:06:09,14.98334222,0.0002915,70.0001,39.9546,269.6589,90.4236,5.5901e-05,5.74e-06,0.0,0 STARLINK-6029,1 56803U 23078AN  24206.54594521  .00000574  00000-0  55901-4 0  9991,2 56803  70.0001  39.9546 0002915 269.6589  90.4236 14.98334222 64091,6950.18,96.107,574.071,570.019,0.0
56803.0,STARLINK-6029,PAYLOAD,2024-07-24 22:42:57,14.98336654,0.0002869,70.0003,38.9445,270.1182,89.9648,8.3189e-05,9e-06,0.0,0 STARLINK-6029,1 56803U 23078AN  24206.94650213  .00000900  00000-0  83189-4 0  9998,2 56803  70.0003  38.9445 0002869 270.1182  89.9648 14.98336654 63892,6950.172,96.107,574.031,570.043,0.0
56803.0,STARLINK-6029,PAYLOAD,2024-07-25 11:32:02,14.9833189,0.0002802,70.0007,37.6024,272.3394,87.7444,0.00010047,1.106e-05,0.0,0 STARLINK-6029,1 56803U 23078AN  24207.48058445  .00001106  00000-0  10047-3 0  9998,2 56803  70.0007  37.6024 0002802 272.3394  87.7444 14.98331890 63977,6950.187,96.107,573.999,570.105,0.0
56803.0,STARLINK-6029,PAYLOAD,2024-07-26 19:34:43,14.98339249,0.0002852,69.998,34.2325,268.1414,91.9419,4.9529e-05,4.98e-06,0.0,0 STARLINK-6029,1 56803U 23078AN  24208.81577734  .00000498  00000-0  49529-4 0  9994,2 56803  69.9980  34.2325 0002852 268.1414  91.9419 14.98339249 64439,6950.164,96.106,574.011,570.047,0.0
56803.0,STARLINK-6029,PAYLOAD,2024-07-26 21:10:51,14.9833845,0.00029,69.9989,34.0644,268.4422,91.6405,3.4591e-05,3.2e-06,0.0,0 STARLINK-6029,1 56803U 23078AN  24208.88253785  .00000320  00000-0  34591-4 0  9995,2 56803  69.9989  34.0644 0002900 268.4422  91.6405 14.98338450 64183,6950.167,96.106,574.047,570.016,0.0
56803.0,STARLINK-6029,PAYLOAD,2024-07-26 22:46:59,14.98338691,0.0002896,69.9985,33.896,268.2998,91.7829,3.6954e-05,3.48e-06,0.0,0 STARLINK-6029,1 56803U 23078AN  24208.94929725  .00000348  00000-0  36954-4 0  9991,2 56803  69.9985  33.8960 0002896 268.2998  91.7829 14.98338691 64196,6950.166,96.106,574.044,570.018,0.0
56803.0,STARLINK-6029,PAYLOAD,2024-07-27 11:36:04,14.98327681,0.0002894,69.996,32.5485,266.6867,93.3961,-1.5405e-05,-2.77e-06,0.0,0 STARLINK-6029,1 56803U 23078AN  24209.48338434 -.00000277  00000-0 -15405-4 0  9993,2 56803  69.9960  32.5485 0002894 266.6867  93.3961 14.98327681 64532,6950.2,96.107,574.076,570.054,0.0
56803.0,STARLINK-6029,PAYLOAD,2024-07-27 21:12:53,14.98325176,0.0002915,69.9965,31.5385,266.921,93.1615,-4.2706e-05,-6.02e-06,0.0,0 STARLINK-6029,1 56803U 23078AN  24209.88394752 -.00000602  00000-0 -42706-4 0  9998,2 56803  69.9965  31.5385 0002915 266.9210  93.1615 14.98325176 64333,6950.208,96.107,574.099,570.047,0.0
56803.0,STARLINK-6029,PAYLOAD,2024-07-28 13:14:13,14.9835519,0.0003131,70.0004,29.8548,269.7537,90.3263,-0.00041105,-4.997e-05,0.0,0 STARLINK-6029,1 56803U 23078AN  24210.55154430 -.00004997  00000-0 -41105-3 0  9993,2 56803  70.0004  29.8548 0003131 269.7537  90.3263 14.98355190 64691,6950.115,96.105,574.156,569.804,0.0
56803.0,STARLINK-6029,PAYLOAD,2024-07-28 19:38:45,14.98270717,0.0002772,70.0001,29.1817,277.3885,82.6958,0.001051,0.0001245,0.0,0 STARLINK-6029,1 56803U 23078AN  24210.81858723  .00012450  00000-0  10510-2 0  9994,2 56803  70.0001  29.1817 0002772 277.3885  82.6958 14.98270717 64732,6950.376,96.111,574.168,570.315,0.0
56803.0,STARLINK-6029,PAYLOAD,2024-07-28 21:14:53,14.98342196,0.0003122,70.0001,29.0142,268.9734,91.1067,-8.6876e-05,-1.13e-05,0.0,0 STARLINK-6029,1 56803U 23078AN  24210.88533845 -.00001130  00000-0 -86876-4 0  9991,2 56803  70.0001  29.0142 0003122 268.9734  91.1067 14.98342196 64480,6950.155,96.106,574.19,569.85,0.0
56803.0,STARLINK-6029,PAYLOAD,2024-07-28 22:51:01,14.98350085,0.0003038,70.0001,28.8456,268.6819,91.3992,-0.00020125,-2.495e-05,0.0,0 STARLINK-6029,1 56803U 23078AN  24210.95209627 -.00002495  00000-0 -20125-3 0  9996,2 56803  70.0001  28.8456 0003038 268.6819  91.3992 14.98350085 64757,6950.131,96.106,574.107,569.884,0.0
56803.0,STARLINK-6029,PAYLOAD,2024-07-29 11:40:06,14.98328434,0.0002988,70.0005,27.5004,264.6704,95.4114,9.7057e-05,1.065e-05,0.0,0 STARLINK-6029,1 56803U 23078AN  24211.48618183  .00001065  00000-0  97057-4 0  9995,2 56803  70.0005  27.5004 0002988 264.6704  95.4114 14.98328434 64831,6950.198,96.107,574.139,569.986,0.0
56803.0,STARLINK-6029,PAYLOAD,2024-07-29 21:16:54,14.98331639,0.0002972,70.0005,26.4903,264.7792,95.3027,0.00012389,1.386e-05,0.0,0 STARLINK-6029,1 56803U 23078AN  24211.88673958  .00001386  00000-0  12389-3 0  9990,2 56803  70.0005  26.4903 0002972 264.7792  95.3027 14.98331639 64639,6950.188,96.107,574.118,569.987,0.0
56803.0,STARLINK-6029,PAYLOAD,2024-07-30 11:42:07,14.98332169,0.000295,70.0005,24.9739,269.9407,90.1414,4.5411e-05,4.49e-06,0.0,0 STARLINK-6029,1 56803U 23078AN  24212.48758146  .00000449  00000-0  45411-4 0  9992,2 56803  70.0005  24.9739 0002950 269.9407  90.1414 14.98332169 64985,6950.186,96.107,574.101,570.001,0.0
56803.0,STARLINK-6029,PAYLOAD,2024-07-30 18:06:39,14.98334095,0.0002931,70.0007,24.3008,270.4719,89.6104,6.8269e-05,7.22e-06,0.0,0 STARLINK-6029,1 56803U 23078AN  24212.75461934  .00000722  00000-0  68269-4 0  9998,2 56803  70.0007  24.3008 0002931 270.4719  89.6104 14.98334095 64767,6950.18,96.107,574.082,570.008,0.0
56803.0,STARLINK-6029,PAYLOAD,2024-07-31 13:20:16,14.98327592,0.0002891,70.0008,22.281,270.5595,89.5233,-2.2033e-05,-3.56e-06,0.0,0 STARLINK-6029,1 56803U 23078AN  24213.55574542 -.00000356  00000-0 -22033-4 0  9991,2 56803  70.0008  22.2810 0002891 270.5595  89.5233 14.98327592 65143,6950.2,96.107,574.075,570.056,0.0
56803.0,STARLINK-6029,PAYLOAD,2024-07-31 14:56:24,14.98327448,0.0002897,70.0009,22.1127,270.5647,89.518,-2.425e-05,-3.82e-06,0.0,0 STARLINK-6029,1 56803U 23078AN  24213.62250561 -.00000382  00000-0 -24250-4 0  9993,2 56803  70.0009  22.1127 0002897 270.5647  89.5180 14.98327448 64890,6950.201,96.107,574.079,570.052,0.0
56803.0,STARLINK-6029,PAYLOAD,2024-07-31 21:20:56,14.98335279,0.0003358,70.0001,21.4384,267.8355,92.242,2.7357e-05,2.33e-06,0.0,0 STARLINK-6029,1 56803U 23078AN  24213.88953873  .00000233  00000-0  27357-4 0  9991,2 56803  70.0001  21.4384 0003358 267.8355  92.2420 14.98335279 64931,6950.177,96.107,574.375,569.708,0.0
56803.0,STARLINK-6029,PAYLOAD,2024-08-01 11:46:08,14.98335265,0.0002981,70.0001,19.9239,272.6405,87.4413,6.28e-05,6.56e-06,0.0,0 STARLINK-6029,1 56803U 23078AN  24214.49037794  .00000656  00000-0  62800-4 0  9995,2 56803  70.0001  19.9239 0002981 272.6405  87.4413 14.98335265 65027,6950.177,96.107,574.113,569.97,0.0
56803.0,STARLINK-6029,PAYLOAD,2024-08-01 21:22:56,14.9834218,0.0003147,70.0012,18.9153,265.5648,94.5152,0.00013429,1.51e-05,0.0,0 STARLINK-6029,1 56803U 23078AN  24214.89092911  .00001510  00000-0  13429-3 0  9993,2 56803  70.0012  18.9153 0003147 265.5648  94.5152 14.98342180 65087,6950.155,96.106,574.207,569.833,0.0
56803.0,STARLINK-6029,PAYLOAD,2024-08-02 03:47:29,14.98329896,0.0003075,70.0007,18.2417,272.3067,87.774,5.6147e-05,5.77e-06,0.0,0 STARLINK-6029,1 56803U 23078AN  24215.15797866  .00000577  00000-0  56147-4 0  9991,2 56803  70.0007  18.2417 0003075 272.3067  87.7740 14.98329896 65387,6950.193,96.107,574.195,569.921,0.0
56803.0,STARLINK-6029,PAYLOAD,2024-08-02 13:24:18,14.98323131,0.0003078,70.0007,17.2319,269.9414,90.1392,1.4153e-05,7.6e-07,0.0,0 STARLINK-6029,1 56803U 23078AN  24215.55854491  .00000076  00000-0  14153-4 0  9998,2 56803  70.0007  17.2319 0003078 269.9414  90.1392 14.98323131 65442,6950.214,96.107,574.218,569.94,0.0
56803.0,STARLINK-6029,PAYLOAD,2024-08-02 15:00:26,14.983218,0.00031,70.0009,17.0636,269.9446,90.1357,1.7677e-05,1.18e-06,0.0,0 STARLINK-6029,1 56803U 23078AN  24215.62530620  .00000118  00000-0  17677-4 0  9992,2 56803  70.0009  17.0636 0003100 269.9446  90.1357 14.98321800 65199,6950.218,96.108,574.238,569.929,0.0
56803.0,STARLINK-6029,PAYLOAD,2024-08-02 19:48:52,14.98306196,0.0003395,70.0002,16.5569,274.0211,86.056,-0.00019817,-2.455e-05,0.0,0 STARLINK-6029,1 56803U 23078AN  24215.82560336 -.00002455  00000-0 -19817-3 0  9996,2 56803  70.0002  16.5569 0003395 274.0211  86.0560 14.98306196 65487,6950.267,96.109,574.491,569.772,0.0
56803.0,STARLINK-6029,PAYLOAD,2024-08-02 21:25:00,14.98304224,0.0003146,70.001,16.3899,271.8691,88.2107,-0.00020398,-2.524e-05,0.0,0 STARLINK-6029,1 56803U 23078AN  24215.89236634 -.00002524  00000-0 -20398-3 0  9997,2 56803  70.0010  16.3899 0003146 271.8691  88.2107 14.98304224 65235,6950.273,96.109,574.324,569.951,0.0
